[{"OBJECT_NAME":"ONEWEB-0171","OBJECT_ID":"2021-025AE","EPOCH":"2025-12-21T01:37:04.897056","MEAN_MOTION":13.13471843,"ECCENTRICITY":0.0001751,"INCLINATION":87.897,"RA_OF_ASC_NODE":355.64,"ARG_OF_PERICENTER":85.005,"MEAN_ANOMALY":275.1279,"EPHEMERIS_TYPE":0,"CLASSIFICATION_TYPE":"U","NORAD_CAT_ID":48070,"ELEMENT_SET_NO":999,"REV_AT_EPOCH":23023,"BSTAR":0.00094452,"MEAN_MOTION_DOT":3.58e-6,"MEAN_MOTION_DDOT":0},{"OBJECT_NAME":"ONEWEB-0172","OBJECT_ID":"2021-025AF","EPOCH":"2025-12-21T01:07:48.740160","MEAN_MOTION":13.13469783,"ECCENTRICITY":0.0001662,"INCLINATION":87.8985,"RA_OF_ASC_NODE":355.6273,"ARG_OF_PERICENTER":84.9904,"MEAN_ANOMALY":275.1415,"EPHEMERIS_TYPE":0,"CLASSIFICATION_TYPE":"U","NORAD_CAT_ID":48071,"ELEMENT_SET_NO":999,"REV_AT_EPOCH":23112,"BSTAR":-0.0014459,"MEAN_MOTION_DOT":-5.15e-6,"MEAN_MOTION_DDOT":0},{"OBJECT_NAME":"ONEWEB-0174","OBJECT_ID":"2021-025AG","EPOCH":"2025-12-21T00:41:00.252096","MEAN_MOTION":13.1346756,"ECCENTRICITY":0.0001681,"INCLINATION":87.8976,"RA_OF_ASC_NODE":355.6346,"ARG_OF_PERICENTER":93.734,"MEAN_ANOMALY":266.3981,"EPHEMERIS_TYPE":0,"CLASSIFICATION_TYPE":"U","NORAD_CAT_ID":48072,"ELEMENT_SET_NO":999,"REV_AT_EPOCH":23044,"BSTAR":-0.00077099,"MEAN_MOTION_DOT":-2.69e-6,"MEAN_MOTION_DDOT":0},{"OBJECT_NAME":"ONEWEB-0175","OBJECT_ID":"2021-025AH","EPOCH":"2025-12-21T01:24:52.727040","MEAN_MOTION":13.13472081,"ECCENTRICITY":0.0001818,"INCLINATION":87.8983,"RA_OF_ASC_NODE":355.5981,"ARG_OF_PERICENTER":76.8856,"MEAN_ANOMALY":283.2475,"EPHEMERIS_TYPE":0,"CLASSIFICATION_TYPE":"U","NORAD_CAT_ID":48073,"ELEMENT_SET_NO":999,"REV_AT_EPOCH":23010,"BSTAR":0.00015935,"MEAN_MOTION_DOT":7.1e-7,"MEAN_MOTION_DDOT":0},{"OBJECT_NAME":"ONEWEB-0177","OBJECT_ID":"2021-025AJ","EPOCH":"2025-12-20T22:02:34.087776","MEAN_MOTION":13.1347129,"ECCENTRICITY":0.0001573,"INCLINATION":87.8985,"RA_OF_ASC_NODE":355.6459,"ARG_OF_PERICENTER":92.6124,"MEAN_ANOMALY":267.5185,"EPHEMERIS_TYPE":0,"CLASSIFICATION_TYPE":"U","NORAD_CAT_ID":48074,"ELEMENT_SET_NO":999,"REV_AT_EPOCH":23027,"BSTAR":0.00077307,"MEAN_MOTION_DOT":2.95e-6,"MEAN_MOTION_DDOT":0},{"OBJECT_NAME":"ONEWEB-0178","OBJECT_ID":"2021-025AK","EPOCH":"2025-12-20T13:21:05.578848","MEAN_MOTION":13.1347079,"ECCENTRICITY":0.0001599,"INCLINATION":87.8974,"RA_OF_ASC_NODE":355.7579,"ARG_OF_PERICENTER":82.2953,"MEAN_ANOMALY":277.8357,"EPHEMERIS_TYPE":0,"CLASSIFICATION_TYPE":"U","NORAD_CAT_ID":48075,"ELEMENT_SET_NO":999,"REV_AT_EPOCH":23027,"BSTAR":-2.8739e-5,"MEAN_MOTION_DOT":2.0e-8,"MEAN_MOTION_DDOT":0},{"OBJECT_NAME":"ONEWEB-0108","OBJECT_ID":"2021-025AL","EPOCH":"2025-12-21T01:10:16.476384","MEAN_MOTION":13.13471573,"ECCENTRICITY":0.0001957,"INCLINATION":87.8982,"RA_OF_ASC_NODE":355.6095,"ARG_OF_PERICENTER":95.6817,"MEAN_ANOMALY":264.4536,"EPHEMERIS_TYPE":0,"CLASSIFICATION_TYPE":"U","NORAD_CAT_ID":48076,"ELEMENT_SET_NO":999,"REV_AT_EPOCH":23026,"BSTAR":-0.00044217,"MEAN_MOTION_DOT":-1.49e-6,"MEAN_MOTION_DDOT":0},{"OBJECT_NAME":"ONEWEB-0169","OBJECT_ID":"2021-025AM","EPOCH":"2025-12-21T01:56:35.462400","MEAN_MOTION":13.1346821,"ECCENTRICITY":0.0001934,"INCLINATION":87.898,"RA_OF_ASC_NODE":355.6239,"ARG_OF_PERICENTER":95.4146,"MEAN_ANOMALY":264.7203,"EPHEMERIS_TYPE":0,"CLASSIFICATION_TYPE":"U","NORAD_CAT_ID":48077,"ELEMENT_SET_NO":999,"REV_AT_EPOCH":22892,"BSTAR":0.00082083,"MEAN_MOTION_DOT":3.13e-6,"MEAN_MOTION_DDOT":0},{"OBJECT_NAME":"ONEWEB-0176","OBJECT_ID":"2021-031A","EPOCH":"2025-12-21T05:10:28.291872","MEAN_MOTION":13.14501546,"ECCENTRICITY":0.0001762,"INCLINATION":87.8995,"RA_OF_ASC_NODE":325.1587,"ARG_OF_PERICENTER":80.3162,"MEAN_ANOMALY":279.8167,"EPHEMERIS_TYPE":0,"CLASSIFICATION_TYPE":"U","NORAD_CAT_ID":48210,"ELEMENT_SET_NO":999,"REV_AT_EPOCH":22493,"BSTAR":0.00047752,"MEAN_MOTION_DOT":1.9e-6,"MEAN_MOTION_DDOT":0},{"OBJECT_NAME":"ONEWEB-0184","OBJECT_ID":"2021-031B","EPOCH":"2025-12-21T04:31:38.928864","MEAN_MOTION":13.14504985,"ECCENTRICITY":0.0001956,"INCLINATION":87.9013,"RA_OF_ASC_NODE":325.1456,"ARG_OF_PERICENTER":57.0614,"MEAN_ANOMALY":303.0703,"EPHEMERIS_TYPE":0,"CLASSIFICATION_TYPE":"U","NORAD_CAT_ID":48211,"ELEMENT_SET_NO":999,"REV_AT_EPOCH":22490,"BSTAR":-0.0003552,"MEAN_MOTION_DOT":-1.19e-6,"MEAN_MOTION_DDOT":0},{"OBJECT_NAME":"ONEWEB-0179","OBJECT_ID":"2021-031C","EPOCH":"2025-12-21T03:49:25.223808","MEAN_MOTION":13.14503082,"ECCENTRICITY":0.0001602,"INCLINATION":87.9006,"RA_OF_ASC_NODE":325.159,"ARG_OF_PERICENTER":90.0993,"MEAN_ANOMALY":270.032,"EPHEMERIS_TYPE":0,"CLASSIFICATION_TYPE":"U","NORAD_CAT_ID":48212,"ELEMENT_SET_NO":999,"REV_AT_EPOCH":22494,"BSTAR":9.1107e-5,"MEAN_MOTION_DOT":4.7e-7,"MEAN_MOTION_DDOT":0},{"OBJECT_NAME":"ONEWEB-0180","OBJECT_ID":"2021-031D","EPOCH":"2025-12-21T02:46:36.426432","MEAN_MOTION":13.14504442,"ECCENTRICITY":0.0001485,"INCLINATION":87.9008,"RA_OF_ASC_NODE":325.1657,"ARG_OF_PERICENTER":78.3637,"MEAN_ANOMALY":281.7659,"EPHEMERIS_TYPE":0,"CLASSIFICATION_TYPE":"U","NORAD_CAT_ID":48213,"ELEMENT_SET_NO":999,"REV_AT_EPOCH":22482,"BSTAR":-0.00026977,"MEAN_MOTION_DOT":-8.7e-7,"MEAN_MOTION_DDOT":0},{"OBJECT_NAME":"ONEWEB-0218","OBJECT_ID":"2021-031E","EPOCH":"2025-12-21T05:08:12.025248","MEAN_MOTION":13.14503585,"ECCENTRICITY":0.000165,"INCLINATION":87.9009,"RA_OF_ASC_NODE":325.1468,"ARG_OF_PERICENTER":52.4375,"MEAN_ANOMALY":307.6904,"EPHEMERIS_TYPE":0,"CLASSIFICATION_TYPE":"U","NORAD_CAT_ID":48214,"ELEMENT_SET_NO":999,"REV_AT_EPOCH":22499,"BSTAR":0.00017527,"MEAN_MOTION_DOT":7.8e-7,"MEAN_MOTION_DDOT":0},{"OBJECT_NAME":"ONEWEB-0209","OBJECT_ID":"2021-031F","EPOCH":"2025-12-20T21:33:46.251072","MEAN_MOTION":13.14504093,"ECCENTRICITY":0.0001591,"INCLINATION":87.8998,"RA_OF_ASC_NODE":325.2452,"ARG_OF_PERICENTER":85.6243,"MEAN_ANOMALY":274.5069,"EPHEMERIS_TYPE":0,"CLASSIFICATION_TYPE":"U","NORAD_CAT_ID":48215,"ELEMENT_SET_NO":999,"REV_AT_EPOCH":22495,"BSTAR":0.00029169,"MEAN_MOTION_DOT":1.21e-6,"MEAN_MOTION_DDOT":0},{"OBJECT_NAME":"ONEWEB-0198","OBJECT_ID":"2021-031G","EPOCH":"2025-12-21T04:29:32.883360","MEAN_MOTION":13.14505158,"ECCENTRICITY":0.0001456,"INCLINATION":87.8995,"RA_OF_ASC_NODE":325.185,"ARG_OF_PERICENTER":73.008,"MEAN_ANOMALY":287.1209,"EPHEMERIS_TYPE":0,"CLASSIFICATION_TYPE":"U","NORAD_CAT_ID":48216,"ELEMENT_SET_NO":999,"REV_AT_EPOCH":22510,"BSTAR":-0.00033493,"MEAN_MOTION_DOT":-1.11e-6,"MEAN_MOTION_DDOT":0},{"OBJECT_NAME":"ONEWEB-0189","OBJECT_ID":"2021-031H","EPOCH":"2025-12-20T21:29:10.973760","MEAN_MOTION":13.14497582,"ECCENTRICITY":0.0001549,"INCLINATION":87.9003,"RA_OF_ASC_NODE":325.2168,"ARG_OF_PERICENTER":74.3867,"MEAN_ANOMALY":285.7434,"EPHEMERIS_TYPE":0,"CLASSIFICATION_TYPE":"U","NORAD_CAT_ID":48217,"ELEMENT_SET_NO":999,"REV_AT_EPOCH":22480,"BSTAR":0.0040149,"MEAN_MOTION_DOT":1.501e-5,"MEAN_MOTION_DDOT":0},{"OBJECT_NAME":"ONEWEB-0196","OBJECT_ID":"2021-031J","EPOCH":"2025-12-21T04:15:40.298400","MEAN_MOTION":13.14503688,"ECCENTRICITY":0.0001655,"INCLINATION":87.8996,"RA_OF_ASC_NODE":325.1747,"ARG_OF_PERICENTER":81.5822,"MEAN_ANOMALY":278.5496,"EPHEMERIS_TYPE":0,"CLASSIFICATION_TYPE":"U","NORAD_CAT_ID":48218,"ELEMENT_SET_NO":999,"REV_AT_EPOCH":22484,"BSTAR":-0.00055258,"MEAN_MOTION_DOT":-1.92e-6,"MEAN_MOTION_DDOT":0}]
