ONEWEB-0171             
1 48070U 21025AE  25355.06741779  .00000358  00000+0  94452-3 0  9992
2 48070  87.8970 355.6400 0001751  85.0050 275.1279 13.13471843230233
ONEWEB-0172             
1 48071U 21025AF  25355.04709190 -.00000515  00000+0 -14459-2 0  9997
2 48071  87.8985 355.6273 0001662  84.9904 275.1415 13.13469783231126
ONEWEB-0174             
1 48072U 21025AG  25355.02847514 -.00000269  00000+0 -77099-3 0  9995
2 48072  87.8976 355.6346 0001681  93.7340 266.3981 13.13467560230446
ONEWEB-0175             
1 48073U 21025AH  25355.05894360  .00000071  00000+0  15935-3 0  9990
2 48073  87.8983 355.5981 0001818  76.8856 283.2475 13.13472081230108
ONEWEB-0177             
1 48074U 21025AJ  25354.91845009  .00000295  00000+0  77307-3 0  9990
2 48074  87.8985 355.6459 0001573  92.6124 267.5185 13.13471290230276
ONEWEB-0178             
1 48075U 21025AK  25354.55631457  .00000002  00000+0 -28739-4 0  9994
2 48075  87.8974 355.7579 0001599  82.2953 277.8357 13.13470790230271
ONEWEB-0108             
1 48076U 21025AL  25355.04880181 -.00000149  00000+0 -44217-3 0  9991
2 48076  87.8982 355.6095 0001957  95.6817 264.4536 13.13471573230268
ONEWEB-0169             
1 48077U 21025AM  25355.08096600  .00000313  00000+0  82083-3 0  9995
2 48077  87.8980 355.6239 0001934  95.4146 264.7203 13.13468210228923
ONEWEB-0176             
1 48210U 21031A   25355.21560523  .00000190  00000+0  47752-3 0  9993
2 48210  87.8995 325.1587 0001762  80.3162 279.8167 13.14501546224930
ONEWEB-0184             
1 48211U 21031B   25355.18864501 -.00000119  00000+0 -35520-3 0  9996
2 48211  87.9013 325.1456 0001956  57.0614 303.0703 13.14504985224909
ONEWEB-0179             
1 48212U 21031C   25355.15931972  .00000047  00000+0  91107-4 0  9993
2 48212  87.9006 325.1590 0001602  90.0993 270.0320 13.14503082224945
ONEWEB-0180             
1 48213U 21031D   25355.11569938 -.00000087  00000+0 -26977-3 0  9997
2 48213  87.9008 325.1657 0001485  78.3637 281.7659 13.14504442224827
ONEWEB-0218             
1 48214U 21031E   25355.21402807  .00000078  00000+0  17527-3 0  9999
2 48214  87.9009 325.1468 0001650  52.4375 307.6904 13.14503585224991
ONEWEB-0209             
1 48215U 21031F   25354.89845198  .00000121  00000+0  29169-3 0  9991
2 48215  87.8998 325.2452 0001591  85.6243 274.5069 13.14504093224953
ONEWEB-0198             
1 48216U 21031G   25355.18718615 -.00000111  00000+0 -33493-3 0  9994
2 48216  87.8995 325.1850 0001456  73.0080 287.1209 13.14505158225109
ONEWEB-0189             
1 48217U 21031H   25354.89526590  .00001501  00000+0  40149-2 0  9998
2 48217  87.9003 325.2168 0001549  74.3867 285.7434 13.14497582224805
ONEWEB-0196             
1 48218U 21031J   25355.17754975 -.00000192  00000+0 -55258-3 0  9996
2 48218  87.8996 325.1747 0001655  81.5822 278.5496 13.14503688224844
